{"type": "FeatureCollection", "features": [ {"type": "Feature", "properties": {"norad_id": 30320, "name": "FENGYUN 1C DEB", "group": "fengyun-1c-debris", "lat": 34.704056299629876, "lon": 45.531576173785915, "alt_km": 924.1615373688865, "timestamp": "2025-12-18T15:47:11.498662+00:00", "meta": {"OBJECT_NAME": "FENGYUN 1C DEB", "OBJECT_ID": "1999-025AAH", "EPOCH": "2025-12-18T03:43:17.148576", "MEAN_MOTION": 13.98557442, "ECCENTRICITY": 0.00850082, "INCLINATION": 99.1869, "RA_OF_ASC_NODE": 51.463, "ARG_OF_PERICENTER": 279.6194, "MEAN_ANOMALY": 105.1396, "EPHEMERIS_TYPE": 0, "CLASSIFICATION_TYPE": "U", "NORAD_CAT_ID": 30320, "ELEMENT_SET_NO": 999, "REV_AT_EPOCH": 96483, "BSTAR": 0.00013987278, "MEAN_MOTION_DOT": 1.61e-06, "MEAN_MOTION_DDOT": 0}, "tle": {"line1": "1 30320U 99025AAH 25352.15505959  .00000161  00000+0  13987-3 0  9997", "line2": "2 30320  99.1869  51.4630 0085008 279.6194 105.1396 13.98557442964833"}}, "geometry": {"type": "Point", "coordinates": [45.531576173785915, 34.704056299629876]}}, {"type": "Feature", "properties": {"norad_id": 30321, "name": "FENGYUN 1C DEB", "group": "fengyun-1c-debris", "lat": 67.35287694102185, "lon": -167.0522979283769, "alt_km": 843.7468666348677, "timestamp": "2025-12-18T15:47:11.498673+00:00", "meta": {"OBJECT_NAME": "FENGYUN 1C DEB", "OBJECT_ID": "1999-025AAJ", "EPOCH": "2025-12-18T06:51:36.016128", "MEAN_MOTION": 14.16647689, "ECCENTRICITY": 0.00601172, "INCLINATION": 98.6561, "RA_OF_ASC_NODE": 351.1714, "ARG_OF_PERICENTER": 220.6651, "MEAN_ANOMALY": 155.1631, "EPHEMERIS_TYPE": 0, "CLASSIFICATION_TYPE": "U", "NORAD_CAT_ID": 30321, "ELEMENT_SET_NO": 999, "REV_AT_EPOCH": 97622, "BSTAR": 0.00025404178, "MEAN_MOTION_DOT": 4.73e-06, "MEAN_MOTION_DDOT": 0}, "tle": {"line1": "1 30321U 99025AAJ 25352.28583352  .00000473  00000+0  25404-3 0  9998", "line2": "2 30321  98.6561 351.1714 0060117 220.6651 155.1631 14.16647689976225"}}, "geometry": {"type": "Point", "coordinates": [-167.0522979283769, 67.35287694102185]}}, {"type": "Feature", "properties": {"norad_id": 30322, "name": "FENGYUN 1C DEB", "group": "fengyun-1c-debris", "lat": -76.47021962941447, "lon": -7.951365534425965, "alt_km": 795.321554651413, "timestamp": "2025-12-18T15:47:11.498683+00:00", "meta": {"OBJECT_NAME": "FENGYUN 1C DEB", "OBJECT_ID": "1999-025AAK", "EPOCH": "2025-12-18T02:35:57.164928", "MEAN_MOTION": 14.06121391, "ECCENTRICITY": 0.01266516, "INCLINATION": 98.3984, "RA_OF_ASC_NODE": 209.4137, "ARG_OF_PERICENTER": 237.7957, "MEAN_ANOMALY": 121.0882, "EPHEMERIS_TYPE": 0, "CLASSIFICATION_TYPE": "U", "NORAD_CAT_ID": 30322, "ELEMENT_SET_NO": 999, "REV_AT_EPOCH": 96275, "BSTAR": 0.0011961347, "MEAN_MOTION_DOT": 2.073e-05, "MEAN_MOTION_DDOT": 0}, "tle": {"line1": "1 30322U 99025AAK 25352.10830052  .00002073  00000+0  11961-2 0  9992", "line2": "2 30322  98.3984 209.4137 0126651 237.7957 121.0882 14.06121391962759"}}, "geometry": {"type": "Point", "coordinates": [-7.951365534425965, -76.47021962941447]}}, {"type": "Feature", "properties": {"norad_id": 30325, "name": "FENGYUN 1C DEB", "group": "fengyun-1c-debris", "lat": -7.3473825363632015, "lon": 12.961356562508955, "alt_km": 871.2942586395557, "timestamp": "2025-12-18T15:47:11.498693+00:00", "meta": {"OBJECT_NAME": "FENGYUN 1C DEB", "OBJECT_ID": "1999-025AAL", "EPOCH": "2025-12-17T21:04:33.684960", "MEAN_MOTION": 14.09105985, "ECCENTRICITY": 0.00153693, "INCLINATION": 98.7325, "RA_OF_ASC_NODE": 11.0703, "ARG_OF_PERICENTER": 237.7908, "MEAN_ANOMALY": 122.1773, "EPHEMERIS_TYPE": 0, "CLASSIFICATION_TYPE": "U", "NORAD_CAT_ID": 30325, "ELEMENT_SET_NO": 999, "REV_AT_EPOCH": 97088, "BSTAR": 3.0763398e-05, "MEAN_MOTION_DOT": 1.1e-07, "MEAN_MOTION_DDOT": 0}, "tle": {"line1": "1 30325U 99025AAL 25351.87816765  .00000011  00000+0  30763-4 0  9996", "line2": "2 30325  98.7325  11.0703 0015369 237.7908 122.1773 14.09105985970888"}}, "geometry": {"type": "Point", "coordinates": [12.961356562508955, -7.3473825363632015]}}, {"type": "Feature", "properties": {"norad_id": 30326, "name": "FENGYUN 1C DEB", "group": "fengyun-1c-debris", "lat": 43.57186866866826, "lon": 67.85581232904764, "alt_km": 993.681586031289, "timestamp": "2025-12-18T15:47:11.498704+00:00", "meta": {"OBJECT_NAME": "FENGYUN 1C DEB", "OBJECT_ID": "1999-025AAM", "EPOCH": "2025-12-18T06:28:35.333760", "MEAN_MOTION": 13.85477756, "ECCENTRICITY": 0.01421859, "INCLINATION": 98.6541, "RA_OF_ASC_NODE": 239.1668, "ARG_OF_PERICENTER": 15.564, "MEAN_ANOMALY": 344.9822, "EPHEMERIS_TYPE": 0, "CLASSIFICATION_TYPE": "U", "NORAD_CAT_ID": 30326, "ELEMENT_SET_NO": 999, "REV_AT_EPOCH": 95532, "BSTAR": 0.00016811285, "MEAN_MOTION_DOT": 1.68e-06, "MEAN_MOTION_DDOT": 0}, "tle": {"line1": "1 30326U 99025AAM 25352.26985340  .00000168  00000+0  16811-3 0  9997", "line2": "2 30326  98.6541 239.1668 0142185  15.5640 344.9822 13.85477756955325"}}, "geometry": {"type": "Point", "coordinates": [67.85581232904764, 43.57186866866826]}}, {"type": "Feature", "properties": {"norad_id": 30327, "name": "FENGYUN 1C DEB", "group": "fengyun-1c-debris", "lat": -22.80768911400256, "lon": -109.73752047263139, "alt_km": 909.3709330625925, "timestamp": "2025-12-18T15:47:11.498714+00:00", "meta": {"OBJECT_NAME": "FENGYUN 1C DEB", "OBJECT_ID": "1999-025AAN", "EPOCH": "2025-12-18T04:44:43.390752", "MEAN_MOTION": 14.18020837, "ECCENTRICITY": 0.01173605, "INCLINATION": 98.4446, "RA_OF_ASC_NODE": 246.2431, "ARG_OF_PERICENTER": 126.9636, "MEAN_ANOMALY": 23.6261, "EPHEMERIS_TYPE": 0, "CLASSIFICATION_TYPE": "U", "NORAD_CAT_ID": 30327, "ELEMENT_SET_NO": 999, "REV_AT_EPOCH": 96520, "BSTAR": 0.0012584843, "MEAN_MOTION_DOT": 2.72e-05, "MEAN_MOTION_DDOT": 0}, "tle": {"line1": "1 30327U 99025AAN 25352.19772443  .00002720  00000+0  12585-2 0  9997", "line2": "2 30327  98.4446 246.2431 0117360 126.9636  23.6261 14.18020837965201"}}, "geometry": {"type": "Point", "coordinates": [-109.73752047263139, -22.80768911400256]}}, {"type": "Feature", "properties": {"norad_id": 30328, "name": "FENGYUN 1C DEB", "group": "fengyun-1c-debris", "lat": 15.20216839262837, "lon": 0.21639752352399114, "alt_km": 853.9434708266244, "timestamp": "2025-12-18T15:47:11.498724+00:00", "meta": {"OBJECT_NAME": "FENGYUN 1C DEB", "OBJECT_ID": "1999-025AAP", "EPOCH": "2025-12-18T07:17:24.488160", "MEAN_MOTION": 14.12476466, "ECCENTRICITY": 0.00060213, "INCLINATION": 98.6861, "RA_OF_ASC_NODE": 2.254, "ARG_OF_PERICENTER": 138.4252, "MEAN_ANOMALY": 237.9912, "EPHEMERIS_TYPE": 0, "CLASSIFICATION_TYPE": "U", "NORAD_CAT_ID": 30328, "ELEMENT_SET_NO": 999, "REV_AT_EPOCH": 97343, "BSTAR": 0.0001182653, "MEAN_MOTION_DOT": 1.76e-06, "MEAN_MOTION_DDOT": 0}, "tle": {"line1": "1 30328U 99025AAP 25352.30375565  .00000176  00000+0  11827-3 0  9997", "line2": "2 30328  98.6861   2.2540 0006021 138.4252 237.9912 14.12476466973433"}}, "geometry": {"type": "Point", "coordinates": [0.21639752352399114, 15.20216839262837]}}, {"type": "Feature", "properties": {"norad_id": 30329, "name": "FENGYUN 1C DEB", "group": "fengyun-1c-debris", "lat": -58.951959119641636, "lon": 76.24602389949375, "alt_km": 1025.7280759447158, "timestamp": "2025-12-18T15:47:11.498734+00:00", "meta": {"OBJECT_NAME": "FENGYUN 1C DEB", "OBJECT_ID": "1999-025AAQ", "EPOCH": "2025-12-18T06:35:37.248288", "MEAN_MOTION": 13.86747563, "ECCENTRICITY": 0.0142232, "INCLINATION": 99.2626, "RA_OF_ASC_NODE": 271.5949, "ARG_OF_PERICENTER": 20.7715, "MEAN_ANOMALY": 109.2698, "EPHEMERIS_TYPE": 0, "CLASSIFICATION_TYPE": "U", "NORAD_CAT_ID": 30329, "ELEMENT_SET_NO": 999, "REV_AT_EPOCH": 95487, "BSTAR": 0.00039705114, "MEAN_MOTION_DOT": 4.57e-06, "MEAN_MOTION_DDOT": 0}, "tle": {"line1": "1 30329U 99025AAQ 25352.27473667  .00000457  00000+0  39705-3 0  9993", "line2": "2 30329  99.2626 271.5949 0142232  20.7715 109.2698 13.86747563954874"}}, "geometry": {"type": "Point", "coordinates": [76.24602389949375, -58.951959119641636]}}, {"type": "Feature", "properties": {"norad_id": 30330, "name": "FENGYUN 1C DEB", "group": "fengyun-1c-debris", "lat": 2.9097632015732544, "lon": 165.13239116358716, "alt_km": 822.6590722835344, "timestamp": "2025-12-18T15:47:11.498744+00:00", "meta": {"OBJECT_NAME": "FENGYUN 1C DEB", "OBJECT_ID": "1999-025AAR", "EPOCH": "2025-12-17T21:52:25.440384", "MEAN_MOTION": 13.82074151, "ECCENTRICITY": 0.01876685, "INCLINATION": 98.8861, "RA_OF_ASC_NODE": 343.9729, "ARG_OF_PERICENTER": 170.828, "MEAN_ANOMALY": 254.2963, "EPHEMERIS_TYPE": 0, "CLASSIFICATION_TYPE": "U", "NORAD_CAT_ID": 30330, "ELEMENT_SET_NO": 999, "REV_AT_EPOCH": 94729, "BSTAR": 0.001065803, "MEAN_MOTION_DOT": 1.271e-05, "MEAN_MOTION_DDOT": 0}, "tle": {"line1": "1 30330U 99025AAR 25351.91140556  .00001271  00000+0  10658-2 0  9993", "line2": "2 30330  98.8861 343.9729 0187668 170.8280 254.2963 13.82074151947294"}}, "geometry": {"type": "Point", "coordinates": [165.13239116358716, 2.9097632015732544]}}, {"type": "Feature", "properties": {"norad_id": 30331, "name": "FENGYUN 1C DEB", "group": "fengyun-1c-debris", "lat": 21.830634350944734, "lon": 23.467253899716713, "alt_km": 840.5329979844346, "timestamp": "2025-12-18T15:47:11.498754+00:00", "meta": {"OBJECT_NAME": "FENGYUN 1C DEB", "OBJECT_ID": "1999-025AAS", "EPOCH": "2025-12-18T02:12:04.387680", "MEAN_MOTION": 13.97835757, "ECCENTRICITY": 0.00960784, "INCLINATION": 98.9557, "RA_OF_ASC_NODE": 26.5369, "ARG_OF_PERICENTER": 353.2721, "MEAN_ANOMALY": 61.4466, "EPHEMERIS_TYPE": 0, "CLASSIFICATION_TYPE": "U", "NORAD_CAT_ID": 30331, "ELEMENT_SET_NO": 999, "REV_AT_EPOCH": 96194, "BSTAR": 0.00036125096, "MEAN_MOTION_DOT": 4.88e-06, "MEAN_MOTION_DDOT": 0}, "tle": {"line1": "1 30331U 99025AAS 25352.09171745  .00000488  00000+0  36125-3 0  9995", "line2": "2 30331  98.9557  26.5369 0096078 353.2721  61.4466 13.97835757961940"}}, "geometry": {"type": "Point", "coordinates": [23.467253899716713, 21.830634350944734]}}]}